STARLINK-35664          
1 66223U 25244T   25329.50006943  .00095528  00000+0  23737-2 0  9996
2 66223  53.1591 356.9996 0001670  75.5060 275.1907 15.39551182  5544
STARLINK-35733          
1 66224U 25244U   25329.50006943  .00095625  00000+0  23762-2 0  9993
2 66224  53.1597 356.9438 0001214  79.0482 299.2278 15.39549918  5433
STARLINK-35734          
1 66225U 25244V   25329.50006943  .00092974  00000+0  23112-2 0  9997
2 66225  53.1598 356.9468 0001626  74.4970 301.9471 15.39552148  5431
STARLINK-34466          
1 66226U 25244W   25329.50006943 -.01862318  00000+0 -47518-1 0  9993
2 66226  53.1599 356.9010 0000932  97.1062 302.2172 15.42225854  5751
STARLINK-34882          
1 66227U 25244X   25329.50006943 -.02679111  00000+0 -68741-1 0  9993
2 66227  53.1600 356.8970 0001513  31.2724   9.7614 15.42809028  5750
STARLINK-35731          
1 66228U 25244Y   25329.50006943 -.02015562  00000+0 -47030-1 0  9996
2 66228  53.1599 356.8677 0001271  68.7209 347.0766 15.45113420  5434
STARLINK-35758          
1 66229U 25244Z   25328.58538746  .00098225  00000+0  17498-2 0  9994
2 66229  53.1596   1.2202 0004256 154.3024 205.8197 15.49338232  5523
STARLINK-35736          
1 66230U 25244AA  25329.35919219  .00111697  00000+0  20315-2 0  9991
2 66230  53.1601 357.5172 0005164  17.9888 342.1302 15.48678461  5642
STARLINK-35735          
1 66231U 25244AB  25329.42340637 -.00256223  00000+0 -48597-2 0  9991
2 66231  53.1600 357.2054 0002305  92.6441 267.4832 15.48663589  5650
STARLINK-35753          
1 66232U 25244AC  25329.35845521  .00059637  00000+0  10713-2 0  9993
2 66232  53.1600 357.5139 0001246  87.4695 272.6457 15.49330785  5644
STARLINK-35626          
1 66233U 25244AD  25329.42262131  .00112123  00000+0  19933-2 0  9995
2 66233  53.1610 357.2049 0001119  97.9909 262.1227 15.49336757  5651
STARLINK-35537          
1 66234U 25245A   25329.50006943  .00037385  00000+0  94128-3 0  9999
2 66234  53.1596  50.9229 0001506 101.2290 176.2034 15.39579145  5339
