CCSDS_OMM_VERS = 2.0
CREATION_DATE  = 
ORIGINATOR     = 

OBJECT_NAME    = STARLINK-35664
OBJECT_ID      = 2025-244T
CENTER_NAME    = EARTH
REF_FRAME      = TEME
TIME_SYSTEM    = UTC
MEAN_ELEMENT_THEORY = SGP/SGP4

EPOCH          = 2025-11-25T12:00:05.998752
MEAN_MOTION    = 15.39551182
ECCENTRICITY   = .000167
INCLINATION    = 53.1591
RA_OF_ASC_NODE = 356.9996
ARG_OF_PERICENTER = 75.5060
MEAN_ANOMALY   = 275.1907

EPHEMERIS_TYPE = 0
CLASSIFICATION_TYPE = U
NORAD_CAT_ID   = 66223
ELEMENT_SET_NO = 999
REV_AT_EPOCH   = 554
BSTAR          = .23737E-2
MEAN_MOTION_DOT = .95528E-3
MEAN_MOTION_DDOT = 0

CCSDS_OMM_VERS = 2.0
CREATION_DATE  = 
ORIGINATOR     = 

OBJECT_NAME    = STARLINK-35733
OBJECT_ID      = 2025-244U
CENTER_NAME    = EARTH
REF_FRAME      = TEME
TIME_SYSTEM    = UTC
MEAN_ELEMENT_THEORY = SGP/SGP4

EPOCH          = 2025-11-25T12:00:05.998752
MEAN_MOTION    = 15.39549918
ECCENTRICITY   = .0001214
INCLINATION    = 53.1597
RA_OF_ASC_NODE = 356.9438
ARG_OF_PERICENTER = 79.0482
MEAN_ANOMALY   = 299.2278

EPHEMERIS_TYPE = 0
CLASSIFICATION_TYPE = U
NORAD_CAT_ID   = 66224
ELEMENT_SET_NO = 999
REV_AT_EPOCH   = 543
BSTAR          = .23762E-2
MEAN_MOTION_DOT = .95625E-3
MEAN_MOTION_DDOT = 0

CCSDS_OMM_VERS = 2.0
CREATION_DATE  = 
ORIGINATOR     = 

OBJECT_NAME    = STARLINK-35734
OBJECT_ID      = 2025-244V
CENTER_NAME    = EARTH
REF_FRAME      = TEME
TIME_SYSTEM    = UTC
MEAN_ELEMENT_THEORY = SGP/SGP4

EPOCH          = 2025-11-25T12:00:05.998752
MEAN_MOTION    = 15.39552148
ECCENTRICITY   = .0001626
INCLINATION    = 53.1598
RA_OF_ASC_NODE = 356.9468
ARG_OF_PERICENTER = 74.4970
MEAN_ANOMALY   = 301.9471

EPHEMERIS_TYPE = 0
CLASSIFICATION_TYPE = U
NORAD_CAT_ID   = 66225
ELEMENT_SET_NO = 999
REV_AT_EPOCH   = 543
BSTAR          = .23112E-2
MEAN_MOTION_DOT = .92974E-3
MEAN_MOTION_DDOT = 0

CCSDS_OMM_VERS = 2.0
CREATION_DATE  = 
ORIGINATOR     = 

OBJECT_NAME    = STARLINK-34466
OBJECT_ID      = 2025-244W
CENTER_NAME    = EARTH
REF_FRAME      = TEME
TIME_SYSTEM    = UTC
MEAN_ELEMENT_THEORY = SGP/SGP4

EPOCH          = 2025-11-25T12:00:05.998752
MEAN_MOTION    = 15.42225854
ECCENTRICITY   = .0000932
INCLINATION    = 53.1599
RA_OF_ASC_NODE = 356.9010
ARG_OF_PERICENTER = 97.1062
MEAN_ANOMALY   = 302.2172

EPHEMERIS_TYPE = 0
CLASSIFICATION_TYPE = U
NORAD_CAT_ID   = 66226
ELEMENT_SET_NO = 999
REV_AT_EPOCH   = 575
BSTAR          = -.47518E-1
MEAN_MOTION_DOT = -.1862318E-1
MEAN_MOTION_DDOT = 0

CCSDS_OMM_VERS = 2.0
CREATION_DATE  = 
ORIGINATOR     = 

OBJECT_NAME    = STARLINK-34882
OBJECT_ID      = 2025-244X
CENTER_NAME    = EARTH
REF_FRAME      = TEME
TIME_SYSTEM    = UTC
MEAN_ELEMENT_THEORY = SGP/SGP4

EPOCH          = 2025-11-25T12:00:05.998752
MEAN_MOTION    = 15.42809028
ECCENTRICITY   = .0001513
INCLINATION    = 53.1600
RA_OF_ASC_NODE = 356.8970
ARG_OF_PERICENTER = 31.2724
MEAN_ANOMALY   = 9.7614

EPHEMERIS_TYPE = 0
CLASSIFICATION_TYPE = U
NORAD_CAT_ID   = 66227
ELEMENT_SET_NO = 999
REV_AT_EPOCH   = 575
BSTAR          = -.68741E-1
MEAN_MOTION_DOT = -.2679111E-1
MEAN_MOTION_DDOT = 0

CCSDS_OMM_VERS = 2.0
CREATION_DATE  = 
ORIGINATOR     = 

OBJECT_NAME    = STARLINK-35731
OBJECT_ID      = 2025-244Y
CENTER_NAME    = EARTH
REF_FRAME      = TEME
TIME_SYSTEM    = UTC
MEAN_ELEMENT_THEORY = SGP/SGP4

EPOCH          = 2025-11-25T12:00:05.998752
MEAN_MOTION    = 15.45113420
ECCENTRICITY   = .0001271
INCLINATION    = 53.1599
RA_OF_ASC_NODE = 356.8677
ARG_OF_PERICENTER = 68.7209
MEAN_ANOMALY   = 347.0766

EPHEMERIS_TYPE = 0
CLASSIFICATION_TYPE = U
NORAD_CAT_ID   = 66228
ELEMENT_SET_NO = 999
REV_AT_EPOCH   = 543
BSTAR          = -.4703E-1
MEAN_MOTION_DOT = -.2015562E-1
MEAN_MOTION_DDOT = 0

CCSDS_OMM_VERS = 2.0
CREATION_DATE  = 
ORIGINATOR     = 

OBJECT_NAME    = STARLINK-35758
OBJECT_ID      = 2025-244Z
CENTER_NAME    = EARTH
REF_FRAME      = TEME
TIME_SYSTEM    = UTC
MEAN_ELEMENT_THEORY = SGP/SGP4

EPOCH          = 2025-11-24T14:02:57.476544
MEAN_MOTION    = 15.49338232
ECCENTRICITY   = .00042562
INCLINATION    = 53.1596
RA_OF_ASC_NODE = 1.2202
ARG_OF_PERICENTER = 154.3024
MEAN_ANOMALY   = 205.8197

EPHEMERIS_TYPE = 0
CLASSIFICATION_TYPE = U
NORAD_CAT_ID   = 66229
ELEMENT_SET_NO = 999
REV_AT_EPOCH   = 552
BSTAR          = .17498213E-2
MEAN_MOTION_DOT = .98225E-3
MEAN_MOTION_DDOT = 0

CCSDS_OMM_VERS = 2.0
CREATION_DATE  = 
ORIGINATOR     = 

OBJECT_NAME    = STARLINK-35736
OBJECT_ID      = 2025-244AA
CENTER_NAME    = EARTH
REF_FRAME      = TEME
TIME_SYSTEM    = UTC
MEAN_ELEMENT_THEORY = SGP/SGP4

EPOCH          = 2025-11-25T08:37:14.205216
MEAN_MOTION    = 15.48678461
ECCENTRICITY   = .0005164
INCLINATION    = 53.1601
RA_OF_ASC_NODE = 357.5172
ARG_OF_PERICENTER = 17.9888
MEAN_ANOMALY   = 342.1302

EPHEMERIS_TYPE = 0
CLASSIFICATION_TYPE = U
NORAD_CAT_ID   = 66230
ELEMENT_SET_NO = 999
REV_AT_EPOCH   = 564
BSTAR          = .20315E-2
MEAN_MOTION_DOT = .111697E-2
MEAN_MOTION_DDOT = 0

CCSDS_OMM_VERS = 2.0
CREATION_DATE  = 
ORIGINATOR     = 

OBJECT_NAME    = STARLINK-35735
OBJECT_ID      = 2025-244AB
CENTER_NAME    = EARTH
REF_FRAME      = TEME
TIME_SYSTEM    = UTC
MEAN_ELEMENT_THEORY = SGP/SGP4

EPOCH          = 2025-11-25T10:09:42.310368
MEAN_MOTION    = 15.48663589
ECCENTRICITY   = .0002305
INCLINATION    = 53.1600
RA_OF_ASC_NODE = 357.2054
ARG_OF_PERICENTER = 92.6441
MEAN_ANOMALY   = 267.4832

EPHEMERIS_TYPE = 0
CLASSIFICATION_TYPE = U
NORAD_CAT_ID   = 66231
ELEMENT_SET_NO = 999
REV_AT_EPOCH   = 565
BSTAR          = -.48597E-2
MEAN_MOTION_DOT = -.256223E-2
MEAN_MOTION_DDOT = 0

CCSDS_OMM_VERS = 2.0
CREATION_DATE  = 
ORIGINATOR     = 

OBJECT_NAME    = STARLINK-35753
OBJECT_ID      = 2025-244AC
CENTER_NAME    = EARTH
REF_FRAME      = TEME
TIME_SYSTEM    = UTC
MEAN_ELEMENT_THEORY = SGP/SGP4

EPOCH          = 2025-11-25T08:36:10.530144
MEAN_MOTION    = 15.49330785
ECCENTRICITY   = .0001246
INCLINATION    = 53.1600
RA_OF_ASC_NODE = 357.5139
ARG_OF_PERICENTER = 87.4695
MEAN_ANOMALY   = 272.6457

EPHEMERIS_TYPE = 0
CLASSIFICATION_TYPE = U
NORAD_CAT_ID   = 66232
ELEMENT_SET_NO = 999
REV_AT_EPOCH   = 564
BSTAR          = .10713335E-2
MEAN_MOTION_DOT = .59637E-3
MEAN_MOTION_DDOT = 0

CCSDS_OMM_VERS = 2.0
CREATION_DATE  = 
ORIGINATOR     = 

OBJECT_NAME    = STARLINK-35626
OBJECT_ID      = 2025-244AD
CENTER_NAME    = EARTH
REF_FRAME      = TEME
TIME_SYSTEM    = UTC
MEAN_ELEMENT_THEORY = SGP/SGP4

EPOCH          = 2025-11-25T10:08:34.481184
MEAN_MOTION    = 15.49336757
ECCENTRICITY   = .0001119
INCLINATION    = 53.1610
RA_OF_ASC_NODE = 357.2049
ARG_OF_PERICENTER = 97.9909
MEAN_ANOMALY   = 262.1227

EPHEMERIS_TYPE = 0
CLASSIFICATION_TYPE = U
NORAD_CAT_ID   = 66233
ELEMENT_SET_NO = 999
REV_AT_EPOCH   = 565
BSTAR          = .19933E-2
MEAN_MOTION_DOT = .112123E-2
MEAN_MOTION_DDOT = 0

CCSDS_OMM_VERS = 2.0
CREATION_DATE  = 
ORIGINATOR     = 

OBJECT_NAME    = STARLINK-35537
OBJECT_ID      = 2025-245A
CENTER_NAME    = EARTH
REF_FRAME      = TEME
TIME_SYSTEM    = UTC
MEAN_ELEMENT_THEORY = SGP/SGP4

EPOCH          = 2025-11-25T12:00:05.998752
MEAN_MOTION    = 15.39579145
ECCENTRICITY   = .0001506
INCLINATION    = 53.1596
RA_OF_ASC_NODE = 50.9229
ARG_OF_PERICENTER = 101.2290
MEAN_ANOMALY   = 176.2034

EPHEMERIS_TYPE = 0
CLASSIFICATION_TYPE = U
NORAD_CAT_ID   = 66234
ELEMENT_SET_NO = 999
REV_AT_EPOCH   = 533
BSTAR          = .94128E-3
MEAN_MOTION_DOT = .37385E-3
MEAN_MOTION_DDOT = 0

